[{"OBJECT_NAME":"OBJECT B","OBJECT_ID":"2024-205B","EPOCH":"2026-03-09T23:46:05.115936","MEAN_MOTION":15.28158697,"ECCENTRICITY":0.00105957,"INCLINATION":97.4192,"RA_OF_ASC_NODE":146.9311,"ARG_OF_PERICENTER":34.0947,"MEAN_ANOMALY":326.0972,"EPHEMERIS_TYPE":0,"CLASSIFICATION_TYPE":"U","NORAD_CAT_ID":61895,"ELEMENT_SET_NO":999,"REV_AT_EPOCH":7352,"BSTAR":0.00054154807,"MEAN_MOTION_DOT":0.00014827,"MEAN_MOTION_DDOT":0},{"OBJECT_NAME":"STARLINK-34869","OBJECT_ID":"2025-190W","EPOCH":"2026-03-09T13:07:17.040000","MEAN_MOTION":15.30200898,"ECCENTRICITY":0.00021177,"INCLINATION":53.1595,"RA_OF_ASC_NODE":168.8163,"ARG_OF_PERICENTER":22.85,"MEAN_ANOMALY":337.2595,"EPHEMERIS_TYPE":0,"CLASSIFICATION_TYPE":"U","NORAD_CAT_ID":65371,"ELEMENT_SET_NO":999,"REV_AT_EPOCH":2973,"BSTAR":0.0011966654,"MEAN_MOTION_DOT":0.00035253,"MEAN_MOTION_DDOT":0}]
